*******************************************************************************
Ephemeris / PORT_LOGIN Fri May  8 03:11:16 2020 Pasadena, USA    / Horizons    
*******************************************************************************
Target body name: Jupiter (599)                   {source: jup310}
Center body name: Sun (10)                        {source: DE431mx}
Center-site name: BODY CENTER
*******************************************************************************
Start time      : A.D. 2008-May-08 00:00:00.0000 TDB
Stop  time      : A.D. 2020-May-08 00:00:00.0000 TDB
Step-size       : 14400 minutes
*******************************************************************************
Center geodetic : 0.00000000,0.00000000,0.0000000 {E-lon(deg),Lat(deg),Alt(km)}
Center cylindric: 0.00000000,0.00000000,0.0000000 {E-lon(deg),Dxy(km),Dz(km)}
Center radii    : 696000.0 x 696000.0 x 696000.0 k{Equator, meridian, pole}    
Output units    : AU-D                                                         
Output type     : GEOMETRIC cartesian states
Output format   : 3 (position, velocity, LT, range, range-rate)
Reference frame : ICRF/J2000.0                                                 
Coordinate systm: Ecliptic and Mean Equinox of Reference Epoch                 
*******************************************************************************
JDTDB
   X     Y     Z
   VX    VY    VZ
   LT    RG    RR
*******************************************************************************
$$SOE
2455994.500000000 = A.D. 2012-Mar-08 00:00:00.0000 TDB 
 X = 3.398532268214848E+00 Y = 3.645628984584719E+00 Z =-9.119177798167956E-02
 VX=-5.616138126855418E-03 VY= 5.509900090663987E-03 VZ= 1.028046311129420E-04
 LT= 2.879021924240626E-02 RG= 4.984871935337280E+00 RR= 1.988115044038286E-04
2456004.500000000 = A.D. 2012-Mar-18 00:00:00.0000 TDB 
 X = 3.341967621521376E+00 Y = 3.700287447368734E+00 Z =-9.015299136969909E-02
 VX=-5.697048944087981E-03 VY= 5.421805925081477E-03 VZ= 1.049495140759610E-04
 LT= 2.880183434688610E-02 RG= 4.986883028335913E+00 RR= 2.032182786098492E-04
2456014.500000000 = A.D. 2012-Mar-28 00:00:00.0000 TDB 
 X = 3.284604456636901E+00 Y = 3.754061871016484E+00 Z =-8.909270835938983E-02
 VX=-5.774761140110027E-03 VY= 5.333215557037832E-03 VZ= 1.071211609441759E-04
 LT= 2.881372724849968E-02 RG= 4.988942220417229E+00 RR= 2.092369955990911E-04
2456024.500000000 = A.D. 2012-Apr-07 00:00:00.0000 TDB 
 X = 3.226459474577296E+00 Y = 3.806943434750488E+00 Z =-8.801106999648589E-02
 VX=-5.853697930916356E-03 VY= 5.242487872596382E-03 VZ= 1.091892561997583E-04
 LT= 2.882591517634485E-02 RG= 4.991052494707040E+00 RR= 2.126857562962397E-04
2456034.500000000 = A.D. 2012-Apr-17 00:00:00.0000 TDB 
 X = 3.167544445778759E+00 Y = 3.858914438987997E+00 Z =-8.690862455692072E-02
 VX=-5.929389057711726E-03 VY= 5.151147819381897E-03 VZ= 1.112735044472001E-04
 LT= 2.883835591676137E-02 RG= 4.993206542136654E+00 RR= 2.176086017207131E-04
2456044.500000000 = A.D. 2012-Apr-27 00:00:00.0000 TDB 
 X = 3.107877911017545E+00 Y = 3.909970742676440E+00 Z =-8.578537643032712E-02
 VX=-6.004012610821626E-03 VY= 5.060049383140613E-03 VZ= 1.133744169561415E-04
 LT= 2.885109034149671E-02 RG= 4.995411439429772E+00 RR= 2.232410724161695E-04
2456054.500000000 = A.D. 2012-May-07 00:00:00.0000 TDB 
 X = 3.047471995882904E+00 Y = 3.960095900982407E+00 Z =-8.464183889041375E-02
 VX=-6.076959398410715E-03 VY= 4.965345662989610E-03 VZ= 1.153488652817525E-04
 LT= 2.886407918390466E-02 RG= 4.997660387777359E+00 RR= 2.269298015715842E-04
2456064.500000000 = A.D. 2012-May-17 00:00:00.0000 TDB 
 X = 2.986342820619753E+00 Y = 4.009281724099161E+00 Z =-8.347822694463516E-02
 VX=-6.148217882403282E-03 VY= 4.871430017422291E-03 VZ= 1.173661327804983E-04
 LT= 2.887733291271011E-02 RG= 4.999955199782945E+00 RR= 2.320923774958511E-04
2456074.500000000 = A.D. 2012-May-27 00:00:00.0000 TDB 
 X = 2.924507833805632E+00 Y = 4.057519764660273E+00 Z =-8.229473914032560E-02
 VX=-6.218623827638534E-03 VY= 4.776219076920036E-03 VZ= 1.193312906533904E-04
 LT= 2.889086371396065E-02 RG= 5.002297985395256E+00 RR= 2.365650490135949E-04
2456084.500000000 = A.D. 2012-Jun-06 00:00:00.0000 TDB 
 X = 2.861978485491286E+00 Y = 4.104794529175172E+00 Z =-8.109193334952680E-02
 VX=-6.286451704409435E-03 VY= 4.678273357421991E-03 VZ= 1.212172403810968E-04
 LT= 2.890462857109652E-02 RG= 5.004681296527860E+00 RR= 2.401414883077430E-04
2456094.500000000 = A.D. 2012-Jun-16 00:00:00.0000 TDB 
 X = 2.798775544365651E+00 Y = 4.151103232502805E+00 Z =-7.986981896786897E-02
 VX=-6.354486258867924E-03 VY= 4.582596099989667E-03 VZ= 1.231681773758295E-04
 LT= 2.891867360414537E-02 RG= 5.007113118616000E+00 RR= 2.452933050381347E-04
2456104.500000000 = A.D. 2012-Jun-26 00:00:00.0000 TDB 
 X = 2.734911194345464E+00 Y = 4.196429985829923E+00 Z =-7.862896874171878E-02
 VX=-6.418676601045429E-03 VY= 4.483670798840702E-03 VZ= 1.250294675832120E-04
 LT= 2.893295259983755E-02 RG= 5.009585450080080E+00 RR= 2.497350673286349E-04
2456114.500000000 = A.D. 2012-Jul-06 00:00:00.0000 TDB 
 X = 2.670401609052651E+00 Y = 4.240768692182636E+00 Z =-7.736960028391890E-02
 VX=-6.482022416419753E-03 VY= 4.383747906106357E-03 VZ= 1.268474292527492E-04
 LT= 2.894747744512923E-02 RG= 5.012100349082758E+00 RR= 2.535950121686291E-04
2456124.500000000 = A.D. 2012-Jul-16 00:00:00.0000 TDB 
 X = 2.605266114843217E+00 Y = 4.284112312257561E+00 Z =-7.609191141160068E-02
 VX=-6.545305907309191E-03 VY= 4.284676984968964E-03 VZ= 1.286719061223908E-04
 LT= 2.896226357567879E-02 RG= 5.014660488225435E+00 RR= 2.580399701062224E-04
2456134.500000000 = A.D. 2012-Jul-26 00:00:00.0000 TDB 
 X = 2.539515773138151E+00 Y = 4.326446095431271E+00 Z =-7.479651336794052E-02
 VX=-6.603975436916515E-03 VY= 4.182353529097976E-03 VZ= 1.304200177710703E-04
 LT= 2.897726144217150E-02 RG= 5.017257288310213E+00 RR= 2.619104961333648E-04
2456144.500000000 = A.D. 2012-Aug-05 00:00:00.0000 TDB 
 X = 2.473172022797492E+00 Y = 4.367769457986386E+00 Z =-7.348340076527279E-02
 VX=-6.664359009471299E-03 VY= 4.081081911911689E-03 VZ= 1.321598655703196E-04
 LT= 2.899252084360259E-02 RG= 5.019899371765828E+00 RR= 2.656242731514959E-04
2456154.500000000 = A.D. 2012-Aug-15 00:00:00.0000 TDB 
 X = 2.406248494491455E+00 Y = 4.408067693417544E+00 Z =-7.215316168788811E-02
 VX=-6.721280382713870E-03 VY= 3.978953915477138E-03 VZ= 1.338850419416828E-04
 LT= 2.900799643847492E-02 RG= 5.022578887955412E+00 RR= 2.701335723420200E-04
2456164.500000000 = A.D. 2012-Aug-25 00:00:00.0000 TDB 
 X = 2.338761022363038E+00 Y = 4.447335194727711E+00 Z =-7.080608405259597E-02
 VX=-6.775181487509056E-03 VY= 3.874963500561884E-03 VZ= 1.355577071385031E-04
 LT= 2.902369323043368E-02 RG= 5.025296703233276E+00 RR= 2.742391032593237E-04
2456174.500000000 = A.D. 2012-Sep-04 00:00:00.0000 TDB 
 X = 2.270729660460765E+00 Y = 4.485567420799098E+00 Z =-6.944234910883543E-02
 VX=-6.830778510257808E-03 VY= 3.770988516850815E-03 VZ= 1.371714393940059E-04
 LT= 2.903963153965847E-02 RG= 5.028056335929450E+00 RR= 2.773728590042063E-04
2456184.500000000 = A.D. 2012-Sep-14 00:00:00.0000 TDB 
 X = 2.202166612646101E+00 Y = 4.522750661298058E+00 Z =-6.806259788824845E-02
 VX=-6.881548362413730E-03 VY= 3.665823791318727E-03 VZ= 1.387786627041072E-04
 LT= 2.905576187959289E-02 RG= 5.030849217712307E+00 RR= 2.814326631122303E-04
2456194.500000000 = A.D. 2012-Sep-24 00:00:00.0000 TDB 
 X = 2.133093205981833E+00 Y = 4.558885243459919E+00 Z =-6.666687358616995E-02
 VX=-6.932381996500759E-03 VY= 3.560475802276082E-03 VZ= 1.403485483471857E-04
 LT= 2.907212913873898E-02 RG= 5.033683120785039E+00 RR= 2.850849017153720E-04
2456204.500000000 = A.D. 2012-Oct-04 00:00:00.0000 TDB 
 X = 2.063523720758090E+00 Y = 4.593959220815760E+00 Z =-6.525573231435138E-02
 VX=-6.981987056842758E-03 VY= 3.454030548326458E-03 VZ= 1.418561577959760E-04
 LT= 2.908869480857878E-02 RG= 5.036551377604455E+00 RR= 2.880785959285666E-04
2456214.500000000 = A.D. 2012-Oct-14 00:00:00.0000 TDB 
 X = 1.993475120055948E+00 Y = 4.627967441630028E+00 Z =-6.382950629605748E-02
 VX=-7.027567484614034E-03 VY= 3.347914303380177E-03 VZ= 1.433986846565982E-04
 LT= 2.910546083859271E-02 RG= 5.039454325712621E+00 RR= 2.928103512208936E-04
2456224.500000000 = A.D. 2012-Oct-24 00:00:00.0000 TDB 
 X = 1.922966901680731E+00 Y = 4.660906783626525E+00 Z =-6.238840345981211E-02
 VX=-7.073530411104416E-03 VY= 3.240235028348575E-03 VZ= 1.448359803884495E-04
 LT= 2.912244402807726E-02 RG= 5.042394873817562E+00 RR= 2.957389330517259E-04
2456234.500000000 = A.D. 2012-Nov-03 00:00:00.0000 TDB 
 X = 1.852011762526470E+00 Y = 4.692766171627911E+00 Z =-6.093303095394613E-02
 VX=-7.116844682487124E-03 VY= 3.131357208673725E-03 VZ= 1.462269092876780E-04
 LT= 2.913960191609301E-02 RG= 5.045365670035514E+00 RR= 2.983603500252585E-04
2456244.500000000 = A.D. 2012-Nov-13 00:00:00.0000 TDB 
 X = 1.780632132075356E+00 Y = 4.723546237105672E+00 Z =-5.946347754099209E-02
 VX=-7.158846643259761E-03 VY= 3.024183928433956E-03 VZ= 1.476619591870525E-04
 LT= 2.915697412421376E-02 RG= 5.048373574629323E+00 RR= 3.028341182932372E-04
2456254.500000000 = A.D. 2012-Nov-23 00:00:00.0000 TDB 
 X = 1.708841429608051E+00 Y = 4.753236958976615E+00 Z =-5.798031491409014E-02
 VX=-7.199171371465106E-03 VY= 2.914047183833155E-03 VZ= 1.489666676296067E-04
 LT= 2.917452211565914E-02 RG= 5.051411915162303E+00 RR= 3.049201624333043E-04
2456264.500000000 = A.D. 2012-Dec-03 00:00:00.0000 TDB 
 X = 1.636657676243924E+00 Y = 4.781835203953505E+00 Z =-5.648386219511362E-02
 VX=-7.237419972419707E-03 VY= 2.805084474927582E-03 VZ= 1.503019499061657E-04
 LT= 2.919225253584787E-02 RG= 5.054481842253041E+00 RR= 3.085940660712528E-04
